[{"OBJECT_NAME":"STARLINK-34535","OBJECT_ID":"2025-142C","EPOCH":"2026-03-09T22:20:52.561824","MEAN_MOTION":14.98315048,"ECCENTRICITY":0.00027672,"INCLINATION":70.0028,"RA_OF_ASC_NODE":313.9569,"ARG_OF_PERICENTER":237.0981,"MEAN_ANOMALY":122.9912,"EPHEMERIS_TYPE":0,"CLASSIFICATION_TYPE":"U","NORAD_CAT_ID":64698,"ELEMENT_SET_NO":999,"REV_AT_EPOCH":3950,"BSTAR":0.00014002144,"MEAN_MOTION_DOT":1.578e-5,"MEAN_MOTION_DDOT":0},{"OBJECT_NAME":"FREGAT DEB","OBJECT_ID":"2011-037AT","EPOCH":"2026-02-27T07:33:41.728320","MEAN_MOTION":13.26314688,"ECCENTRICITY":0.10195687,"INCLINATION":51.565,"RA_OF_ASC_NODE":116.2128,"ARG_OF_PERICENTER":148.3059,"MEAN_ANOMALY":218.3568,"EPHEMERIS_TYPE":0,"CLASSIFICATION_TYPE":"U","NORAD_CAT_ID":45651,"ELEMENT_SET_NO":999,"REV_AT_EPOCH":25946,"BSTAR":0.0036558398,"MEAN_MOTION_DOT":0.00039113,"MEAN_MOTION_DDOT":0}]
